KUIPER-00141            
1 65966U 25228V   26063.14586415  .00054704  00000+0  71367-2 0  9997
2 65966  51.9037   5.1978 0001062 142.8483 217.2553 14.79990573 22685
KUIPER-00146            
1 65967U 25228W   26064.09357743  .00004051  00000+0  60692-3 0  9993
2 65967  51.9040   3.2247 0001135 104.0645 256.0442 14.76463541 22796
KUIPER-00149            
1 65968U 25228X   26063.21590041  .00008730  00000+0  11722-2 0  9994
2 65968  51.9030   2.3072 0001682  60.7673 299.3457 14.79953971 22732
KUIPER-00154            
1 65969U 25228Y   26064.19773228  .00000993  00000+0  15924-3 0  9995
2 65969  51.9035 355.4709 0000675  72.6376 287.4660 14.79930316 22912
KUIPER-00157            
1 65970U 25228Z   26064.19502774 -.00002413  00000+0 -28757-3 0  9992
2 65970  51.9052 358.0907 0000626  57.1833 302.9190 14.79948812 22870
KUIPER-00144            
1 67133U 25301A   26064.23587166  .00036875  00000+0  96913-3 0  9996
2 67133  51.8679  86.6263 0007643  18.5362 341.5902 15.38216352 13053
KUIPER-00164            
1 67134U 25301B   26063.78020159 -.00049507  00000+0 -23756-2 0  9992
2 67134  51.8782  90.2178 0004156  45.3966 314.7351 15.18407926 13146
KUIPER-00175            
1 67135U 25301C   26064.21415141  .00026134  00000+0  87452-3 0  9994
2 67135  51.8759  86.5152 0001993  33.6925 326.4186 15.30790522 13127
KUIPER-00179            
1 67136U 25301D   26064.25003472 -.02087875  00000+0 -12059+0 0  9999
2 67136  51.8807  87.4269 0002395  49.5347 342.8608 15.15707322  5651
KUIPER-00181            
1 67137U 25301E   26064.25003472 -.00028853  00000+0 -40995-2 0  9992
2 67137  51.9010  96.6232 0001932  86.7243 274.2235 14.76417204  5315
KUIPER-00183            
1 67138U 25301F   26064.25003472 -.00010256  00000+0 -32081-3 0  9999
2 67138  51.8656  87.3435 0015152  36.9663 333.9848 15.31356613  5866
KUIPER-00184            
1 67139U 25301G   26064.22110801  .00043949  00000+0  11905-2 0  9996
2 67139  51.8617  87.2132 0012397  34.4952 325.6837 15.37154183 13329
KUIPER-00186            
1 67140U 25301H   26064.25611550  .00017473  00000+0  23136-2 0  9990
2 67140  51.9018  97.7176 0000898 106.1447 253.9614 14.79958570 12906
KUIPER-00187            
1 67141U 25301J   26064.25331145 -.00005985  00000+0 -75641-3 0  9996
2 67141  51.9018 100.2399 0000674  95.6772 264.4268 14.79948764 12860
KUIPER-00188            
1 67142U 25301K   26064.32351322  .00049679  00000+0  13133-2 0  9997
2 67142  51.8688  86.4563 0010313  30.0208 330.1368 15.37876142 13069
KUIPER-00191            
1 67143U 25301L   26064.25003472 -.00046736  00000+0 -55999-2 0  9999
2 67143  51.8995  92.8651 0007697  39.0803  32.2035 14.83761506  4889
