[{"OBJECT_NAME":"KUIPER-00141","OBJECT_ID":"2025-228V","EPOCH":"2026-03-04T03:30:02.662560","MEAN_MOTION":14.79990573,"ECCENTRICITY":0.00010625,"INCLINATION":51.9037,"RA_OF_ASC_NODE":5.1978,"ARG_OF_PERICENTER":142.8483,"MEAN_ANOMALY":217.2553,"EPHEMERIS_TYPE":0,"CLASSIFICATION_TYPE":"U","NORAD_CAT_ID":65966,"ELEMENT_SET_NO":999,"REV_AT_EPOCH":2268,"BSTAR":0.0071367425,"MEAN_MOTION_DOT":0.00054704,"MEAN_MOTION_DDOT":0},{"OBJECT_NAME":"KUIPER-00146","OBJECT_ID":"2025-228W","EPOCH":"2026-03-05T02:14:45.089952","MEAN_MOTION":14.76463541,"ECCENTRICITY":0.00011353,"INCLINATION":51.904,"RA_OF_ASC_NODE":3.2247,"ARG_OF_PERICENTER":104.0645,"MEAN_ANOMALY":256.0442,"EPHEMERIS_TYPE":0,"CLASSIFICATION_TYPE":"U","NORAD_CAT_ID":65967,"ELEMENT_SET_NO":999,"REV_AT_EPOCH":2279,"BSTAR":0.0006069247,"MEAN_MOTION_DOT":4.051e-5,"MEAN_MOTION_DDOT":0},{"OBJECT_NAME":"KUIPER-00149","OBJECT_ID":"2025-228X","EPOCH":"2026-03-04T05:10:53.795424","MEAN_MOTION":14.79953971,"ECCENTRICITY":0.00016822,"INCLINATION":51.903,"RA_OF_ASC_NODE":2.3072,"ARG_OF_PERICENTER":60.7673,"MEAN_ANOMALY":299.3457,"EPHEMERIS_TYPE":0,"CLASSIFICATION_TYPE":"U","NORAD_CAT_ID":65968,"ELEMENT_SET_NO":999,"REV_AT_EPOCH":2273,"BSTAR":0.0011721562,"MEAN_MOTION_DOT":8.73e-5,"MEAN_MOTION_DDOT":0},{"OBJECT_NAME":"KUIPER-00154","OBJECT_ID":"2025-228Y","EPOCH":"2026-03-05T04:44:44.068992","MEAN_MOTION":14.79930316,"ECCENTRICITY":6.751e-5,"INCLINATION":51.9035,"RA_OF_ASC_NODE":355.4709,"ARG_OF_PERICENTER":72.6376,"MEAN_ANOMALY":287.466,"EPHEMERIS_TYPE":0,"CLASSIFICATION_TYPE":"U","NORAD_CAT_ID":65969,"ELEMENT_SET_NO":999,"REV_AT_EPOCH":2291,"BSTAR":0.00015924227,"MEAN_MOTION_DOT":9.93e-6,"MEAN_MOTION_DDOT":0},{"OBJECT_NAME":"KUIPER-00157","OBJECT_ID":"2025-228Z","EPOCH":"2026-03-05T04:40:50.396736","MEAN_MOTION":14.79948812,"ECCENTRICITY":6.262e-5,"INCLINATION":51.9052,"RA_OF_ASC_NODE":358.0907,"ARG_OF_PERICENTER":57.1833,"MEAN_ANOMALY":302.919,"EPHEMERIS_TYPE":0,"CLASSIFICATION_TYPE":"U","NORAD_CAT_ID":65970,"ELEMENT_SET_NO":999,"REV_AT_EPOCH":2287,"BSTAR":-0.00028756508,"MEAN_MOTION_DOT":-2.413e-5,"MEAN_MOTION_DDOT":0},{"OBJECT_NAME":"KUIPER-00144","OBJECT_ID":"2025-301A","EPOCH":"2026-03-05T05:39:39.311424","MEAN_MOTION":15.38216352,"ECCENTRICITY":0.00076438,"INCLINATION":51.8679,"RA_OF_ASC_NODE":86.6263,"ARG_OF_PERICENTER":18.5362,"MEAN_ANOMALY":341.5902,"EPHEMERIS_TYPE":0,"CLASSIFICATION_TYPE":"U","NORAD_CAT_ID":67133,"ELEMENT_SET_NO":999,"REV_AT_EPOCH":1305,"BSTAR":0.00096912932,"MEAN_MOTION_DOT":0.00036875,"MEAN_MOTION_DDOT":0},{"OBJECT_NAME":"KUIPER-00164","OBJECT_ID":"2025-301B","EPOCH":"2026-03-04T18:43:29.417376","MEAN_MOTION":15.18407926,"ECCENTRICITY":0.00041568,"INCLINATION":51.8782,"RA_OF_ASC_NODE":90.2178,"ARG_OF_PERICENTER":45.3966,"MEAN_ANOMALY":314.7351,"EPHEMERIS_TYPE":0,"CLASSIFICATION_TYPE":"U","NORAD_CAT_ID":67134,"ELEMENT_SET_NO":999,"REV_AT_EPOCH":1314,"BSTAR":-0.0023755634,"MEAN_MOTION_DOT":-0.00049507,"MEAN_MOTION_DDOT":0},{"OBJECT_NAME":"KUIPER-00175","OBJECT_ID":"2025-301C","EPOCH":"2026-03-05T05:08:22.681824","MEAN_MOTION":15.30790522,"ECCENTRICITY":0.00019937,"INCLINATION":51.8759,"RA_OF_ASC_NODE":86.5152,"ARG_OF_PERICENTER":33.6925,"MEAN_ANOMALY":326.4186,"EPHEMERIS_TYPE":0,"CLASSIFICATION_TYPE":"U","NORAD_CAT_ID":67135,"ELEMENT_SET_NO":999,"REV_AT_EPOCH":1312,"BSTAR":0.00087452446,"MEAN_MOTION_DOT":0.00026134,"MEAN_MOTION_DDOT":0},{"OBJECT_NAME":"KUIPER-00179","OBJECT_ID":"2025-301D","EPOCH":"2026-03-05T06:00:02.999808","MEAN_MOTION":15.15707322,"ECCENTRICITY":0.00023951,"INCLINATION":51.8807,"RA_OF_ASC_NODE":87.4269,"ARG_OF_PERICENTER":49.5347,"MEAN_ANOMALY":342.8608,"EPHEMERIS_TYPE":0,"CLASSIFICATION_TYPE":"U","NORAD_CAT_ID":67136,"ELEMENT_SET_NO":999,"REV_AT_EPOCH":565,"BSTAR":-0.12059118,"MEAN_MOTION_DOT":-0.02087875,"MEAN_MOTION_DDOT":0},{"OBJECT_NAME":"KUIPER-00181","OBJECT_ID":"2025-301E","EPOCH":"2026-03-05T06:00:02.999808","MEAN_MOTION":14.76417204,"ECCENTRICITY":0.00019324,"INCLINATION":51.901,"RA_OF_ASC_NODE":96.6232,"ARG_OF_PERICENTER":86.7243,"MEAN_ANOMALY":274.2235,"EPHEMERIS_TYPE":0,"CLASSIFICATION_TYPE":"U","NORAD_CAT_ID":67137,"ELEMENT_SET_NO":999,"REV_AT_EPOCH":531,"BSTAR":-0.0040994569,"MEAN_MOTION_DOT":-0.00028853,"MEAN_MOTION_DDOT":0},{"OBJECT_NAME":"KUIPER-00183","OBJECT_ID":"2025-301F","EPOCH":"2026-03-05T06:00:02.999808","MEAN_MOTION":15.31356613,"ECCENTRICITY":0.00151523,"INCLINATION":51.8656,"RA_OF_ASC_NODE":87.3435,"ARG_OF_PERICENTER":36.9663,"MEAN_ANOMALY":333.9848,"EPHEMERIS_TYPE":0,"CLASSIFICATION_TYPE":"U","NORAD_CAT_ID":67138,"ELEMENT_SET_NO":999,"REV_AT_EPOCH":586,"BSTAR":-0.00032080974,"MEAN_MOTION_DOT":-0.00010256,"MEAN_MOTION_DDOT":0},{"OBJECT_NAME":"KUIPER-00184","OBJECT_ID":"2025-301G","EPOCH":"2026-03-05T05:18:23.732064","MEAN_MOTION":15.37154183,"ECCENTRICITY":0.00123975,"INCLINATION":51.8617,"RA_OF_ASC_NODE":87.2132,"ARG_OF_PERICENTER":34.4952,"MEAN_ANOMALY":325.6837,"EPHEMERIS_TYPE":0,"CLASSIFICATION_TYPE":"U","NORAD_CAT_ID":67139,"ELEMENT_SET_NO":999,"REV_AT_EPOCH":1332,"BSTAR":0.0011905091,"MEAN_MOTION_DOT":0.00043949,"MEAN_MOTION_DDOT":0},{"OBJECT_NAME":"KUIPER-00186","OBJECT_ID":"2025-301H","EPOCH":"2026-03-05T06:08:48.379200","MEAN_MOTION":14.7995857,"ECCENTRICITY":8.981e-5,"INCLINATION":51.9018,"RA_OF_ASC_NODE":97.7176,"ARG_OF_PERICENTER":106.1447,"MEAN_ANOMALY":253.9614,"EPHEMERIS_TYPE":0,"CLASSIFICATION_TYPE":"U","NORAD_CAT_ID":67140,"ELEMENT_SET_NO":999,"REV_AT_EPOCH":1290,"BSTAR":0.0023136459,"MEAN_MOTION_DOT":0.00017473,"MEAN_MOTION_DDOT":0},{"OBJECT_NAME":"KUIPER-00187","OBJECT_ID":"2025-301J","EPOCH":"2026-03-05T06:04:46.109280","MEAN_MOTION":14.79948764,"ECCENTRICITY":6.74e-5,"INCLINATION":51.9018,"RA_OF_ASC_NODE":100.2399,"ARG_OF_PERICENTER":95.6772,"MEAN_ANOMALY":264.4268,"EPHEMERIS_TYPE":0,"CLASSIFICATION_TYPE":"U","NORAD_CAT_ID":67141,"ELEMENT_SET_NO":999,"REV_AT_EPOCH":1286,"BSTAR":-0.00075641224,"MEAN_MOTION_DOT":-5.985e-5,"MEAN_MOTION_DDOT":0},{"OBJECT_NAME":"KUIPER-00188","OBJECT_ID":"2025-301K","EPOCH":"2026-03-05T07:45:51.542208","MEAN_MOTION":15.37876142,"ECCENTRICITY":0.00103134,"INCLINATION":51.8688,"RA_OF_ASC_NODE":86.4563,"ARG_OF_PERICENTER":30.0208,"MEAN_ANOMALY":330.1368,"EPHEMERIS_TYPE":0,"CLASSIFICATION_TYPE":"U","NORAD_CAT_ID":67142,"ELEMENT_SET_NO":999,"REV_AT_EPOCH":1306,"BSTAR":0.001313325,"MEAN_MOTION_DOT":0.00049679,"MEAN_MOTION_DDOT":0},{"OBJECT_NAME":"KUIPER-00191","OBJECT_ID":"2025-301L","EPOCH":"2026-03-05T06:00:02.999808","MEAN_MOTION":14.83761506,"ECCENTRICITY":0.00076979,"INCLINATION":51.8995,"RA_OF_ASC_NODE":92.8651,"ARG_OF_PERICENTER":39.0803,"MEAN_ANOMALY":32.2035,"EPHEMERIS_TYPE":0,"CLASSIFICATION_TYPE":"U","NORAD_CAT_ID":67143,"ELEMENT_SET_NO":999,"REV_AT_EPOCH":488,"BSTAR":-0.0055998842,"MEAN_MOTION_DOT":-0.00046736,"MEAN_MOTION_DDOT":0}]
